     2.11           GLONASS NAV DATA                        RINEX VERSION / TYPE
CONVBIN 2.4.3                           20210713 135509 UTC PGM / RUN BY / DATE 
log: ./LOGS/2021_7_13_13_00_00.ubx                          COMMENT             
format: u-blox                                              COMMENT             
GNSS logger application                                     COMMENT             
                                                            END OF HEADER       
21 21  7 13 13 45  0.0 -.223568640649E-03 -.272848410532E-11  .501000000000E+05
     .116244526367E+05  .176200580597E+01  .372529029846E-08  .000000000000E+00
    -.947089355469E+03  .256510066986E+01  .000000000000E+00  .400000000000E+01
     .226739687500E+05 -.798669815063E+00 -.931322574615E-09  .000000000000E+00
